ReceivingFacilityEPAIDNumber,importer_name,importer_address,importer_city,importer_state,importer_zip,latitude,longitude,exporter_key,exporter_name,exporter_address,exporter_city,exporter_state,exporterLAT,exporterLONG,un,hazWasteDesc,mgmt,ExpectedManagementMethod
ALD070513767,GIANT RESOURCE RECOVERY - ATTALLA,1229 VALLEY DR,ATTALLA,AL,35954,34.0816307,-86.0232925,E32A0601,ABLEMEX SA DE C.V.,"CALLE CUAUHTEMOC 9460-3, FRACC. AZTECA",TIJUANA,BAJA CALIFORNIA,32.4680364,-116.9800601,UN3077,"Environmentally hazardous substances, solid, n.o.s.",H132,Landfill or surface impoundment that will be closed as landfill (to include prior treatment and/or stabilization) 
ALD981475304,KW PLASTICS,NO 1 SANDERS RD,TROY,AL,36079,31.7355156,-86.0069199,E28A3988,ADVANCE TRANSFORMER DIVISION,CERADA INDUSTRIAL # 5559,CIUDAD JUAREZ,CHIHUAHUA,28.68098,-106.03988,UN1219,Isopropanol or  Isopropyl alcohol,H141,"The site receiving this waste stored/bulked and transferred the waste with no treatment or recovery (H010- H129), fuel blending (H061), or disposal (H131-H135) at that receiving site. "
ARD006354161,ALCOA REYNOLDS METAL CO GUM SPRING PLANT,500 EAST REYNOLDS ROAD,ARKADELPHIA,AR,71923,34.0634315,-93.0798056,E46A9035,AECL-CHALK RIVER LABS,1 PLANT ROAD,CHALK RIVER,ONTARIO,46.018514,-77.449035,UN1993,"Flammable liquids, n.o.s.",H040,Incineration - thermal destruction other than use as a fuel (includes any preparation prior to burning) 
ARD069748192,CLEAN HARBORS EL DORADO LLC,309 AMERICAN DRIVE,EL DORADO,AR,71730,33.2065288,-92.6290289,E43A9753,AIMCO SOLREC LTD,425 MOROBEL DR,MILTON,ONTARIO,43.51971,-79.89753,UN1263,"Paint including paint, lacquer, enamel, stain, shellac solutions, varnish, polish, liquid filler, and liquid lacquer base",H010,"Metals recovery including retorting, smelting, chemical, etc. "
ARD981057870,RINECO,1007 VULCAN RD,BENTON,AR,72015,34.5155387,-92.6286607,E45A5794,AIR LIQUIDE CANADA LTD,11201 RAY-LAWSON BLVD,ANJOU QUEBEC,QUEBEC,45.62485,-73.5794,UN3190,"Self-heating solid, inorganic, n.o.s.",,Not provided
AZD980695332,GANNON AND SCOTT,2113 EAST SKY HARBOR CIRCLE SOUTH,PHOENIX,AZ,85034,33.4307289,-112.036499,E54A1644,ALCAN PRIMARY METAL GROUP,1 SMELTERSITE RD,KITIMAT,BRITISH COLUMBIA,54.060101,-128.621644,UN1950,"Aerosols, corrosive, Packing Group II or III, (each not exceeding 1 L capacity)",H039,"Other recovery or reclamation for reuse including acid regeneration, organics recovery, etc (specify in comments). "
AZD980735500,WORLD RESOURCES COMPANY,8113 WEST SHERMAN STREET,TOLLESON,AZ,85353,33.4396133,-112.2355118,E49A5612,ALCOA LIMITEE,100 ROUTE MARITIME,BAIE-COMEAU,QUEBEC,49.2485836,-68.1465612,UN1760,"Corrosive liquids, n.o.s.",H061,Fuel blending prior to energy recovery at another site (waste generated either on-site or received from off-site) 
CAD008302903,VEOLIA ES TECHNICAL SOLUTIOINS,1704 W FIRST ST,AZUSA,CA,91702,34.1213375,-117.9382942,E46A6768,ALCOA-DESCHAMBAULT LTD,1 BOULEVARD DES SOURCES,DESCHAMBAULT,QUEBEC,46.6987589,-71.9376768,UN2929,"Toxic liquids, flammable, organic, n.o.s.",H129,Other treatment that does not include onsite disposal (specify in comments) 
CAD060398229,HERAEUS METAL PROCESSING INC,15524 CARMENITA ROAD,SANTA FE SPRINGS,CA,90670,33.8890457,-118.0464897,E50A2518,ALUMINERIE ALOUETTE INC,400 CH POINTE NOIRE,SEPT-ILES,QUEBEC,50.1566637,-66.4682518,UN2794,"Batteries, wet, filled with acid, electric storage",H050,Energy recovery at this site - used as fuel (includes on-site fuel blending before energy recovery; report only this code) 
CAD066233966,RSR CORP/QUETMETCO INC,720 S SEVENTH AVE,CITY OF INDUSTRY,CA,91476,34.025253,-117.9856087,E46A1407,ALUMINIERE DE BECANCOUR INC,5555 PIERRE-THIBAULT,BECANCOUR,QUEBEC,46.3867349,-72.3921407,NA3077,"Hazardous waste, solid, n.o.s.",H020,"Solvents recovery (distillation, extraction, etc) "
CAD088504881,KINSBURSKY BROTHERS INC,1314 NORTH ANAHEIM BLVD,ANAHEIM,CA,92801,33.8528734,-117.9197661,E45A4021,ANACHEM LTD,135 RICHER ST.,LACHINE,QUEBEC,45.4490826,-73.6634021,UN1362,"Carbon, activated",H077,Other chemical precipitation with or without pre-treatment (includes processes for consolidation of residuals)
CAT000646117,CHEMICAL WASTE MANAGEMENT,35251 OLD SKILINE ROAD,KETTLEMAN CITY,CA,93239,35.9674644,-120.0172653,E29A5312,APARATOS ELECTRICOS DE ACUNA,CARRETERA PRESA LA AMISTAD KM7,CIUDAD ACUNA,MEXICO,29.33128,-100.95312,UN1866,"Resin solution, flammable",H111,"Stabilization or chemical fixation prior to disposal at another site (as the major component oftreatment; not H071-H075, H077, or H082)"
ILD000608471,CLEAN HARBORS SERVICES INC.,11800 SOUTH STONY ISLAND AVE,CHICAGO,IL,60617,41.6820145,-87.5873184,E43A8876,ARCELORMITTAL,1330 BURLINGTON ST E,HAMILTON,ONTARIO,43.2602958,-79.8128876,UN3266,"Corrosive liquid, basic, inorganic, n.o.s.",H076,Wet air oxidation (includes any preparation or final processes for consolidation of residuals)
ILD000666206,EQ ILLINOIS - ENVIRITE OF IL,16435 CENTER AVE,HARVEY,IL,60426,41.590442,-87.643295,E43A2386,ARCELORMITTAL,690 STRATHEARNE AVE,N HAMILTON,ONTARIO,43.2574387,-79.792386,UN1710,Trichloroethylene,H075,Chemical oxidation (includes any preparation or final processes for consolidation of residuals)
ILD005121439,SIPS METALS CORPORATION,1720 NORTH ELSTON AVENUE,CHICAGO,IL,60622,41.9135284,-87.664772,E43A5315,ASSURED PACKAGING INC,6080 VIPOND DR,MISSISSAUGA,ONTARIO,43.6525899,-79.65315,UN1830,Sulfuric acid with more than 51 percent acid,H112,"Macro-encapsulation prior to disposal at another site (as the major component of treatment; not reportable as H071-H075, H077, or H082)"
KSD980633259,SYSTECH ENVIRONMENTAL,1420 SOUTH CEMENT ROAD,FREDONIA,KS,66738,37.5156317,-95.8243324,E46A2337,ATOMIC ENERGY OF CANADA LTD,1 PLANT ROAD,CHALK RIVER,ONTARIO,46.0188529,-77.4482337,UN3082,"Environmentally hazardous substances, liquid, n.o.s.","H040, H141",Multiple management methods
LAD980622161,CATALYST RECOVERY OF LA LLC,100 AMERICAN BLVD.,LAFAYETTE,LA,70508,30.1680946,-91.9817352,E43A8289,ATOTECH CANADA LTD,1180 CORPORATE DR,BURLINGTON,ONTARIO,43.37944,-79.78289,UN2813,"Water-reactive solid, n.o.s.",H121,Neutralization only (no other treatment) 
MID005338801,GAGE PRODUCTS,625 WANDA STREET,FERNDALE,MI,48220,42.4508084,-83.1133747,E19A1172,BENDIX CVS DE MEXICO SA DE CV,CARRETERA PRESA LA AMISTAD KM 65 PARQUE IND AM,MEXICO,MEXICO,19.44741,-99.21172,UN1268,"Petroleum distillates, n.o.s. or  Petroleum products, n.o.s.",H073,Cyanide destruction with or without precipitation (includes any preparation or final processes for consolidation of residuals)
MID074259565,DYNECOL INC,6520 GEORGIA ST,DETROIT,MI,48211,42.392868,-83.0325241,E32A0647,BLACK & DECKER HHI (P1),"CIRCUITO SIGLO XXI 1926, CTRO NEGOCIOS EX-XXI",MEXICALI,BAJA CALIFORNIA,32.64544,-115.40647,UN3265,"Corrosive liquid, acidic, organic, n.o.s.",H123,Settling or clarification (as the major component of treatment; not reportable as H071-H083)
MID980991566,EQ DETROIT,1923 FREDERICK ST,DETROIT,MI,48211,42.366119,-83.04718,E42A6087,BP CANADA ENERGY COMPANY,1182 PLANK RD,SAMIS,ONTARIO,42.95449,-82.376087,UN2800,"Batteries, wet, non-spillable, electric storage",H128,Unknown
MND006172969,3M COTTAGE GROVE CENTER,10746 INNOVATION ROAD-BLDG 47,COTTAGE GROVE,MN,55016,44.787403,-92.901496,E31A0661,BRP MEXICO S.A. DE C.V.,"AVE. DE LAS INDUSTRIAS NO. 2250, PARQUE IND. ANTONIA J. BERMUDEZ",CD. JUAREZ,CHIHUAHUA,31.74397,-106.50661,UN2291,"Lead compounds, soluble, n.o.s.",H135,Discharge to sewer/POTW or NPDES (with prior storage - with or without treatment) 
MND981098478,SIEMENS WATER TECHNOLOGIES CORP,2430 ROSE PLACE,ROSEVILLE,MN,55113,45.0169029,-93.2024536,E45A0416,C.R.I. ENVIRONMENT INC.,75 RUE DE PROGRES,COTEAU-DU-LAC,QUEBEC,45.29627,-74.20416,UN3260,"Corrosive solid, acidic, inorganic, n.o.s.",H139,Unknown
NCD000648451,CLEAN HARBORS INC,208 WALTINGTON INDUSTRIAL DRIVE,REIDSVILLE,NC,72320,36.3204765,-79.6475906,E45A7512,CHEMREC INC,"190, BROSSEAU",,QUEBEC,45.22288,-72.77512,UN1992,"Flammable liquids, toxic, n.o.s.",H041,Unknown
NCD095119210,METALLIX REFINING INC,251 INDUSTRIAL BOULEVARD,GREENVILLE,NC,27834,35.6463547,-77.3623962,E45A7512,CHEMREC INC,190 BROSSEAU ST,COWANSVILLE,QUEBEC,45.22288,-72.77512,UN2735,"Amines, liquid, corrosive, n.o.s,  or   Polyamines, liquid, corrosive, n.o.s.",LIW,Unknown
NED981723513,CLEAN HARBORS ENV SERVICES INC,2247 SOUTH HIGHWAY 71,KIMBALL,NE,69145,41.2286987,-103.6630936,E45A7027,CHEMTECH ENVIRONMENT INC,16 RUE PRINCIPALE,COTEAU-DU-LAC,QUEBEC,45.294773,-74.177027,UN3264,"Corrosive liquid, acidic, inorganic, n.o.s.",H132; H061,Multiple management methods
NJD002182897,SAFETY-KLEEN,1200 SYLVAN STREET,LINDEN,NJ,7036,40.613678,-74.252037,E45A4484,CHEMTECH ENVIRONMENT INC,1223 MONTEE DE LA POMME D'OR,CONTRECOEUR,QUEBEC,45.84123,-73.24484,UN3321,"Radioactive material, low specific activity (LSA-II) non fissile or fissile-excepted",H141; H129,Multiple management methods
NYD002113736,TULIP CORPORATION,3125 HIGHLAND AVE,NIAGARA FALLS,NY,14305,43.1165123,-79.0471191,E43A2726,CHEMTURA CANADA,25 ERB STREET,ELMIRA,ONTARIO,43.5966451,-80.552726,UN2910,"Radioactive material, excepted package-limited quantity of material",H082; H129,Multiple management methods
NYD067919340,SABIN METAL CORPORATION,1647 WHEATLAND CENTER ROAD,SCOTTSVILLE,NY,14546,43.0046082,-77.8193665,E32A3249,"CHROMALLOY, SA DE CV (I)",GALAXIA #91 PI MEXICALI,MEXICALI,BAJA CALIFORNIA,32.6339221,-115.5743249,LN0078,Unknown,H141; H121,Multiple management methods
OHD000724153,CLEAN HARBORS INC,2900 ROCKEFELLER AVENUE,CLEVELAND,OH,44115,41.4816117,-81.6717323,E42A3023,CHROMESHIELD CO.,804 MCDOUGALL,WINDSOR,ONTARIO,42.31282,-83.03023,LN2078,Unknown,H040; H050,Multiple management methods
OHD005048947,SYSTECH ENVIRONMENTAL OF OH,11397 ROAD 176,PAULDING,OH,45979,41.1794347,-84.6038675,E42A2793,CHRYSLER CANADA,2199 CHRYSLER CENTRE,WINDSOR,ONTARIO,42.3026855,-82.9882793,UN3093,"Corrosive liquids, oxidizing, n.o.s.",H010; PLASTIC RECYCLING,Multiple management methods
OHD00816629,SPRING GROVE RESOURCE RECOVERY INC,4879 SPRING GROVE AVENUE,CINCINNATI,OH,45232,39.1700858,-84.5112216,E31A2805,CIA-RINQUIM / AVANZADOS QUIMICOS,CARRETERA PANAMERICANA KM. 28.5,JUAREZ,CHIHUAHUA,31.662872,-106.42805,UN1755,Chromic acid solution,H039; PLASTIC RECYCLING,Multiple management methods
OHD042319244,AMG VANADIUM INC,60790 SOUTHGATE RD,CAMBRIDGE,OH,43725,39.9935799,-81.5667114,E53A2583,CLEAN HARBORS (RYLEY),2 KM NORTH OF HIGHWAY 14 ON SEC RD. 854,RYLEY,ALBERTA,53.300381,-112.422583,UN3287,"Toxic liquid, inorganic, n.o.s.",H039; RECYCLE PLASTICS,Multiple management methods
OHD048415665,ROSS INCINERATION SERVICES INC.,36790 GILES ROAD,GRAFTON,OH,44044,41.3217127,-82.0347114,E42A0195,CLEAN HARBORS CANADA INC,4090 TELFER ROAD RR 1,CORUNNA,ONTARIO,42.8785,-82.30195,SN0178,Unknown,H040; H141,Multiple management methods
OHD980568992,"ENVIRITE OF OHIO, INC.",2050 CENTRAL AVENUE S.E.,CANTON,OH,44707,40.776016,-81.369079,E43A6647,CLEAN HARBORS CANADA INC,552 AVONHEAD ROAD,MISSISSAUGA,ONTARIO,43.4981162,-79.626647,MN1177,Unknown,H040;H141,Multiple management methods
OHD980587364,CLEAN HARBORS RECYCLING SERVICES OF OHIO LLC,581 MILLIKEN DRIVE SE,HEBRON,OH,43025,39.9839783,-82.4794617,E49A4033,CLEAN HARBORS CANADA INC,7842 PROGRESS WAY,DELTA,BRITISH COLUMBIA,49.1382395,-123.0064033, N1177,Unknown,H134,Deep well or underground injection (with or without treatment; this waste was counted as hazardous waste) 
OHD980613541,HERITAGE-WTI INC,1250 ST GEORGE ST,EAST LIVERPOOL,OH,43920,40.6315774,-80.5479363,E49A6974,CLEAN HARBORS CANADA INC,1147 HENRY AVENUE,WINNIPEG,MANITOBA,49.91507,-97.16974,UN3090,"Lithium battery",H071,Chemical reduction with or without precipitation (includes any preparation or final processes for consolidation of residuals)
OHD986976348,AGMET METALS INC,7800 MEDUSA STREET,OAKWOOD VILLAGE,OH,44146,41.3541565,-81.5178833,E42A1378,CLEAN HARBORS INC,2258 RIVER ROAD,LONDON,ONTARIO,42.9791,-81.1378,UN2580,"Aluminum bromide, solution",H242,Unknown
OHR000161299,AGMET METALS INC.,5533 DUNHAM RD,MAPLE HEIGHTS,OH,44137,41.409294,-81.571619,E43A0001,CLEAN HARBORS INC,1829 ALLANPORT ROAD,THOROLD,ONTARIO,43.06098,-79.20001,UN3254,Tributylphosphane,H101,"Sludge treatment and/or dewatering (as the major component of treatment; not H071-H075, H077, or H082)"
OKD987097151,TRICAT INC,100 STEVEN TAYLOR BOULEVARD,MCALESTER,OK,74501,34.9253219,-95.8253496,E45A2109,CLEAN HARBORS QUEBEC INC,400 GALIBEAU STREET,THURSO,QUEBEC,45.5884931,-75.2422109,VN0118,Unknown,H132/H061,Multiple management methods
ORD089452353,CHEMICAL WASTE MANAGEMENT,17629 CEDAR SPRINGS LANE,ARLINGTON,OR,97812,45.6159418,-120.2485679,E45A0884,CLEAN HARBORS QUEBEC LLC,6785 ROUTE 132,SAINTE-CATHERINE,QUEBEC,45.3951205,-73.5970884,UN3175,"Solids containing flammable liquid, n.o.s.",H132 ,Landfill or surface impoundment that will be closed as landfill (to include prior treatment and/or stabilization)
PAD000736942,CALGON CARBON CORPORATION,200 NEVILLE ROAD,PITTSBURGH,PA,15225,40.4962425,-80.0805283,E32A6865,"COASTLINE DE MEXICO, S.A. DE C.V.",CALLE CIPRES NO 4 COL LAS BRISAS,TIJUANA,BAJA CALIFORNIA,32.5123554,-117.0196865,UN1789,Hydrochloric acid,H061; H141,Multiple management methods
PAD002389559,KEYSTONE CEMENT,RT 512+329,BATH,PA,18014,40.7653694,-75.4092255,E18A8879,COMPLEJO PETROQUIMICO PAJARITOS,CARRETERA COATZACOALCOS-VILLA HERMOSA KM 7.5 CO,,,18.1258,-94.43453,UN1832,"Sulfuric acid, spent",H080,Unknown
PAD002395887,HORSEHEAD CORP,900 DELAWARE AVE EAST PLANT,PALMERTON,PA,18071,40.8292351,-75.5839539,E50A9917,CONSUMERS COOPERATIVE REFINERIES,550 EAST 9TH AVENUE NORTH,REGINA,SASKATCHEWAN,50.4821234,-104.5749917,UN1932,Zirconium scrap,H141/H010,Multiple management methods
PAD087561015,INMETCO,1 INMETCO DR,ELLWOOD CITY,PA,16117,40.8574267,-80.270097,E27A4062,CONVERCA DEL NORESTE S RL CV,BLVD. MICHIGAN #1 PARQUE IND. RIO GRANDE,NUEVO LAREDO,TAMAULIPAS,27.46852,-99.54062,EN2208,Unknown,H021,Unknown
RID059735761,ADVANCED CHEMICAL COMPANY,105 BELLOWS STREET,WARWICK,RI,2888,41.764283,-71.400233,E44A2761,COOPER PLATING,1150 NICHOLSON RD,NEWMARKET,ONTARIO,44.0551699,-79.42761,UN3178,"Flammable solid, inorganic, n.o.s.",,
SCD036275626,GIANT RESOURCE RECOVERY,755 INDUSTRIAL ROAD PO BOX 1755,SUMTER,SC,29150,33.9066618,-80.3315498,E43A9754,COURT GALVANIZING LTD,225 THOMPSON DR,CAMBRIDGE,ONTARIO,43.40993,-80.29754,UN2920,"Corrosive liquids, flammable, n.o.s.",,
TND000646612,HERAEUS METAL PROCESSING INC,1975 KNOXVILLE HIGHWAY,WARTBURG,TN,37887,36.095164,-84.5499015,E50A2187,CRITERION CATALYSTS AND TECHNOLOGIES,2159 BRIER PARK PLACE NW,MEDICINE HAT,ALBERTA,50.06066,-110.72187,UN1953,"Compressed gas, toxic, flammable, n.o.s. Inhalation Hazard Zone A",,
TND982109142,DIVERSIFIED SCIENTIFIC SERVICES INC,657 GALLAHER ROAD,KINGSTON,TN,37763,35.8761139,-84.4378128,E31A0799,CUMMINS JUAREZ SA DE CV,BERMUDEZ INDUSTRIAL PARK,MEXICO,MEXICO,31.664073,-106.340799,UN1005,"Ammonia, anhydrous",,
TXD000838896,VEOLIA ENVIRONMENTAL SERVICES,HWY 73 3-5 MILES WEST OF TAYLORS BAYOU,PORT ARTHUR,TX,77640,29.7439327,-94.1084747,E43A9154,DANA CANADA CORPORATION,656 KERR ST,OAKVILLE,ONTARIO,43.4488399,-79.69154,UN1057,Lighter refills containing flammable gas not exceeding 4 fluid ounces (7.22 cubic inches) and 65 grams of flammable gas,,
TXD055135388,SET ENVIRONMENTAL INC,5743 CHESWOOD,HOUSTON,TX,77087,29.6817074,-95.3178024,E43A4708,DANA CANADA CORPORATION,205 INDUSTRIAL DRIVE,MT. FOREST,ONTARIO,43.98678,-80.74708,UN1954,"Compressed gas, flammable, n.o.s.",,
TXD055141378,CLEAN HARBORS DEER PARK INC,2027 INDEPENDENCE PARKWAY SOUTH,LA PORTE,TX,77571,29.6941654,-95.0923502,E31A9935,VIDRIOCAR,MIGUEL CATALAN #420,JUAREZ,MEXICO,31.74314,-106.459935,UN2845,"Pyrophoric liquids, organic, n.o.s.",,
TXD069452340,US ECOLOGY TEXAS,3277 COUNTY ROAD 69,ROBSTOWN,TX,78380,27.7309493,-97.6520741,E25A6367,"DETONADORES ESTRELLA, SA DE CV",BRECHA 82 KM 37 Y 38 PREDIO PACHECO,MATAMOROS,TAMAULIPAS,25.65162,-97.6367,UN3021,"Pesticides, liquid, flammable, toxic, flash point less than 23 degrees C",,
TXD074195678,GULF CHEMICAL & METALLURGICAL CORP,302 MIDWAY ROAD,FREEPORT,TX,77541,28.9548016,-95.3383865,E31A0799,DIESEL RECON DE MEXICO,BERMUDEZ INDUSTRIAL PARK,MEXICO CITY,MEXICO,31.664073,-106.340799,UN1963,"Helium, refrigerated liquid (cryogenic liquid)",,
TXD077603371,SAFETY-KLEEN,1722 COOPER CREEK ROAD,DENTON,TX,76208,33.2368813,-97.0811615,E43A7199,DIRECT LINE ENVIRONMENTAL,1070 TROY AVE,PICKERING,ONTARIO,43.8367998,-79.0657199,UN1955,"Compressed gas, toxic, n.o.s. Inhalation Hazard Zone A",,
TXD106829963,EURECAT US INC,13100 BAYPARK ROAD,PASADENA,TX,77507,29.6425438,-95.0633087,E28A0807,DISCOVER RECYCLING,"JABIL CIRCUIT DE CHIHUAHUA, S.A. DE C.V., ALEJANDRFO DUMAS 11341, COMPLEJO IND.",CHIHUAHUA,CHIHUAHUA,28.718066,-106.110807,UN1966,"Hydrogen, refrigerated liquid (cryogenic liquid)",,
TXD981053770,AMLON RESOURCES C/O DURATHERM INC.,2700 AVENUE S,SAN LEON,TX,77539,29.4681852,-94.9645724,E42A9676,DOW CHEMICAL,SCOTT ROAD LANDFILL,SARNIA,ONTARIO,42.93375,-82.39676,UN1964,"Hydrocarbon gas mixture, compressed, n.o.s.",,
TXD982290140,CLEAN HARBORS LAPORTE LLC,500 INDEPENDENCE PARKWAY SOUTH,LA PORTE,TX,77571,29.6941654,-95.0923502,E53A2295,DOW CHEMICAL,HIGHWAY 15,FORT SASKATCHEWAN,ALBERTA,53.733488,-113.172295,UN1340,"Phosphorus pentasulfide, free from yellow or white phosphorus",,
UTD981552177,CLEAN HARBORS INC,11800 NORTH APTUS ROAD,GRANTSVILLE,UT,84029,40.7937431,-112.5333939,E45A5994,DRAIN-ALL ENVIRONMENTAL LTD,2705 STEVENAGE DRIVE,GLOUCESTER,ONTARIO,45.38333,-75.5994,UN3107,"Organic peroxide type E, liquid",,
WAD981769110,EMERALD SERVICES INC,1825 ALEXANDER AVE,TACOMA,WA,98421,47.2697983,-122.39048,E31A3008,"EDUMEX, S.A. DE C.V.",6620/6621 RAMON RIVERA LARA,JAUREZ,CHIHUAHUA,31.6939,-106.43008,UN3105,"Organic peroxide type D, liquid",,
WIR000000356,WM MERCURY WASTE INC,21211 DURAND AVENUE,UNION GROVE,WI,53182,42.6807442,-88.0754318,E32A2292,"ELECTRO OPTICOS SUPERIOR, S.A. DE C.V.","CALLE ALBA Y TERRAZO NO 9, COMPLEJO INDUSTRIAL BUSTAMANTE, COLLA MESA",TIJUANA,BAJA CALIFORNIA,32.498518,-116.962292,UN3106,"Organic peroxide type D, solid",,
,,,,,,,,E31A3247,ELECTRONICA LOWRANCE DE MEXICO SA DE CV,AVE REFORMA NO 1648 COL VALLEY VERDA,ENSENADA,BAJA CALIFORNIA,31.8750979,-116.6093247,UN1479,"Oxidizing solid, n.o.s.",,
,,,,,,,,E26A3795,EMERPOWSYS S DE RL DE CV,12A REYNOSA INDUSTRIAL CENTER,REYNOSA,TAMAULIPAS,26.02279,-98.23795,UN2810,"Toxic, liquids, organic, n.o.s.",,
,,,,,,,,E19A0404,EMERSON TOOL AND APPLIANCE DE RL DE CV,CALLE PEDREGAL LOTE 8 V 15 MANZANA 2,REYNOSA,MEXICO,19.42271,-99.20404,UN1759,"Corrosive solids, n.o.s.",,
,,,,,,,,E52A7723,ENVIROSORT INC,4415 39139 HWY 2A,RED DEER COUNTY,ALBERTA,52.34307,-113.77723,UN2846,"Pyrophoric solids, organic, n.o.s.",,
,,,,,,,,E31A2133,"EPI DE MEXICO, S. DE R.L. DE C.V.",AV. RIO BRAVO 1080,CIUDAD JAUREZ,CHIHUAHUA,31.6507339,-106.3752133,UN1384,Sodium dithionite or Sodium hydrosulfite,,
,,,,,,,,E31A4261,"EPIC TECHNOLOGIES DE JUAREZ, S. DE R.L. DE C.V.","S. DE R.L. DE C.V., EJE V. JUAN GABRIEL 2255",CD. JUAREZ,CHIHUAHUA,31.67563,-106.44534,UN2924,"Flammable liquids, corrosive, n.o.s.",,
,,,,,,,,E42A2077,ETHYL CANADA,220 ST. CLAIR PARKWAY,CORUNNA,ONTARIO,42.9000894,-82.4572077,UN1436,Zinc powder or Zinc dust,,
,,,,,,,,E43A6478,FIELDING CHEMICAL TECHNOLOGIES,3549 MAVIS ROAD,MISSISSAUGA,ONTARIO,43.5778899,-79.6478,UN2922,"Corrosive liquids, toxic, n.o.s.",,
,,,,,,,,E25A0713,FISHER & RYKEL DE MEXICO S DE RL DE CV REFRIGERATION,"BLVD MONTEBELLO LOTES 1, 2, Y 3 MANZANA 6 P INDUSTRIAL",REYNOSA,MEXICO,25.999752,-98.200713,UN2683,Ammonium sulfide solution,,
,,,,,,,,E21A3703,FLEX-N-GATE MEXICO,"AVENIDA PRINCIPAL #1, PARQUE INDUSTRIAL OPCION",SAN JOSE ITURBIDE,GUANAJUATO,21.01724,-100.33703,UN3131,"Water-reactive solid, corrosive, n.o.s.",,
,,,,,,,,E43A7211,FORD MOTOR COMPANY,THE CANADIAN ROAD,OAKVILLE,ONTARIO,43.48327,-79.67211,UN1325,"Flammable solids, organic, n.o.s.",,
,,,,,,,,E42A1198,FORTUNE MINERALS LTD,YELLOW BRICK ROAD INT HWY 614/17,HEMLO,ONTARIO,42.98501,-81.251198,UN3104,"Organic peroxide type C, solid",,
,,,,,,,,E43A5166,GALVCAST MANUFACTURING INC,60 COMMERCE CRESCENT,ACTON,ONTARIO,43.6415099,-80.05166,UN3109,"Organic peroxide type F, liquid",,
,,,,,,,,E43A8057,GENERAL ELECTRIC CANADA/ GE HOME & BUSINESS SOLUTIONS,420 SOUTH SERVICE RD EAST,OAKVILLE,ONTARIO,43.46356,-79.68057,UN1935,"Cyanide solutions, n.o.s.",,
,,,,,,,,E43A7199,GFL ENVIRONMENTAL EAST CORP,1070 TOY AVE,PICKERING,ONTARIO,43.8367998,-79.0657199,RN0 3Y97,Unknown,,
,,,,,,,,E53A5753,GILEAD ALBERTA ULC,1021 HAYER ROAD,EDMONTON,ALBERTA,53.57107,-113.35753,UN3103,"Organic peroxide type C, liquid",,
,,,,,,,,E26A1818,GLOBE MOTORS,PARQUE INDUSTRIAL MAQUILPARK,REYNOSA ,TAMAULIPAS,26.03841,-98.21818,UN3110,"Organic peroxide type F, solid",,
,,,,,,,,E43A3131,HOTZ ENVIRONMENTAL SERVICES INC,239 LOTTRIDGE ST.,HAMILTON,ONTARIO,43.25801,-79.83131,UN1588,"Cyanides, inorganic, solid, n.o.s.",,
,,,,,,,,E32A7273,HUDSON RESPIRATORY CARE TECATE S. DE R.L. DE C.V. PROLONGACION,EUSEBIO ONO 1316 RANCHO EL DESCANSO,TECATE,BAJA CALIFORNIA,32.566136,-116.607273,UN1687,Sodium azide,,
,,,,,,,,E51A0774,HUSKY LLOYDMINSTER UPGRADER,707 8TH AVENUE S.W.,CALGARY,ALBERTA,53.261222,-109.952499,UN2811,"Toxic solids, organic, n.o.s.",,
,,,,,,,,E44A3841,IMPERIAL OIL LIMITED,600 PLEASANT ST,DARTMOUTH,NOVA SCOTIA,44.6423232,-63.5363841,UN2588,"Pesticides, solid, toxic, n.o.s.",,
,,,,,,,,E42A1988,IMPERIAL OIL SARNIA MANUFACTURING SITE,602 CHRISTINA STREET SOUTH,SARNIA,ONTARIO,42.9555949,-82.4141988,UN1164,Dimethyl sulfide,,
,,,,,,,,E53A9394,IMPERIAL OIL STRATHCONA REFINERY,HIGHWAY 16A EAST AND 34TH STREET,EDMONTON,ALBERTA,53.44373,-113.39394,UN2795,"Batteries, wet, filled with alkali, electric storage",,
,,,,,,,,E29A5312,INDUSTRIES IRVIN DE MEXICO S.A. DE C.V.,CARR. PRESA LA AMISTAD K.M. 6 C.P. 26238,CD ACUNA,COAHUILA,29.33128,-100.95312,UN3293,"Hydrazine, aqueous solution with not more than 37 percent hydrazine, by mass",,
,,,,,,,,E32A5851,"INTERIORES AEREOS, S. A. DE C. V. ","BOULEVARD LAZARO CARDENAS #2385, COL. CALLES",MEXICALI,BAJA CALIFORNIA,32.62201,-115.55851,UN1381,"Phosphorus, white dry or Phosphorus, white, under water or Phosphorus white, in solution or Phosphorus, yellow dry or Phosphorus, yellow, under water or  Phosphorus, yellow, in solution",,
,,,,,,,,E28A2805,"INTERMETRO DE MEXICO, S DE R.L. DE C.V.",AVE. RIO CONCHOS #9105,CD. CUAUHTEMOC,CHIHUAHUA,28.44765,-106.82805,UN3244,"Solids containing corrosive liquid, n.o.s.",,
,,,,,,,,E42A3606,INTERNATIONAL MARINE SALVAGE INC.,P.O. BOX 6,PORT COLLEGE,ONTARIO,42.92301,-79.253606,UN1809,Phosphorus trichloride,,
,,,,,,,,E45A6323,IRVING OIL LTD REFINING DIVISION,340 LOCH LOMOND RD,SAINT JOHN,NEW BRUNSWICK,45.2914793,-66.0226323,UN3139,"Oxidizing liquid, n.o.s.",,
,,,,,,,,E25A2153,KEY AUTOMOTIVE ACCESSORIES DE MEXICO SA DE CV,"AVE. VALLE HERMOSO LOTE 18, 19 V 20",VALLE HERMOSO,,25.663857,-97.82153,UN2902,"Pesticides, liquid, toxic, n.o.s.",,
,,,,,,,,E26A1842,KIMBALL ELECTRONICS DE MEXICO,"BRECHA E-99 PQUE, INDUSTRIAL REYNOSA",REYNOSA,TAMAULIPAS,26.01159,-98.21842, N04B17,Unknown,,
,,,,,,,,E32A2716,"KLINGSPOR ABRASIVOS, S. A. DE C. V. ",CALLE 3RA NORTE 106-A CD. INDUSTRIAL,TIJUANA,BAJA CALIFORNIA,32.5482737,-116.9192716,UN3148,"Water-reactive liquid, n.o.s.",,
,,,,,,,,E43A4358,KUNTZ ELECTROPLATING INC,851 WILSON AVENUE,KITCHENER,ONTARIO,43.4128,-80.44358,UN3098,"Oxidizing liquid, corrosive, n.o.s.",,
,,,,,,,,E32A5749,"KYOCERA MEXICANA, S.A.","BLVD BUENA VISTA OTAY # 2055, P.I. INT. TIJ.",TIJUANA,BAJA CALIFORNIA,32.518603,-116.9815749,UN2465,"Dichloroisocyanuric acid, dry or Dichloroisocyanuric acid salts",,
,,,,,,,,E31A1964,LAIDLAW ENV. SVCS. DE MEXICO S.A. DE C.V.,BLV. MIGUEL DE LA MADRID #9370,CD. JUAREZ,CHIHUAHUA,31.61421,-106.41964,UN2014,"Hydrogen peroxide, aqueous solutions with more than 40 percent but not more than 60 percent hydrogen peroxide (stabilized as necessary)",,
,,,,,,,,E27A4062,LINAMAR DRIVELINE SYSTEMS MEXICO,MICHIGAN 1 PARQUE IND. RIO GDE.,NUEVO LAREDO,TAMAULIPAS,27.46852,-99.54062,UN1338,"Phosphorus, amorphous",,
,,,,,,,,E32A7122,MABAMEX SA DE C.V.,BLVD. EL REFUGIO NO 25551 FIDEICOMISO EL FLORIDO,TIJUANA,BAJA CALIFORNIA,32.46217,-116.87122,UN1805,Phosphoric acid solution,,
,,,,,,,,E25A9603,MALTEX S.A. DE C.V.,BRECHA 122 KM68,VALLE HERMOSO,TAMAULIPAS,25.66851,-97.79603,UN2031,"Nitric acid other than red fuming, with at least 65 percent, but  not more than 70 percent nitric acid",,
,,,,,,,,E32A2181,MEXHON S. DE R.L. DE C.V.,BLVD INSURGENTES NO 18002 COL CERRO COLORADO CP 22550 ,TIJUANA,BAJA CALIFORNIA,32.4728989,-116.9182181,UN1780,Fumaryl chloride,,
,,,,,,,,E32A9187,MEXHON SL DE R.L. DE C.V.,BLVD INSURGENTES NO 18002 COL CERRO COLORADO ,TIJUANA,BAJA CALIFORNIA,32.4739715,-116.9189187,UN2206,"Isocyanates, toxic, n.o.s. or   Isocyanate solutions, toxic, n.o.s., flash point more than 61 degrees C and boiling point less than 300 degrees C",,
,,,,,,,,E19A3907,MOTORES REYNOSA SA DE C V,AVE. DE LAS LORNAS ESP,MEXICO,MEXICO,19.40096,-99.23907,UN3149,"Hydrogen peroxide and peroxyacetic acid mixtures, stabilized with acids, water and not more than 5 percent peroxyacetic acid",,
,,,,,,,,E43A7553,NETWORK MATERIALS AND RESOURCES INC,31 GOLDEN GATE CT,SCARBOROUGH,ONTARIO,43.7716068,-79.2627553,AN04B17,Unknown,,
,,,,,,,,E45A2997,NEWALTA CORPORATION,1200 GARNIER,STE. CATHERINE,QUEBEC,45.4020369,-73.6012997,UN3096,"Corrosive solids, water-reactive, n.o.s.",,
,,,,,,,,E44A3776,NEWALTA CORPORATION,1131 SNOW VALLEY ROAD,BARRIE,ONTARIO,44.43435,-79.73776,UN2925,"Flammable solids, corrosive, organic, n.o.s.",,
,,,,,,,,E43A8144,NEWALTA CORPORATION,55 VULCAN ST,TORONTO,ONTARIO,43.70343,-79.58144,UN1999,"Tars, liquid including road oils and cutback bitumens",,
,,,,,,,,E45A5324,NEWALTA INDUSTRIAL SERVICES,125 BELANGER,CHATEAUGUAY,QUEBEC,45.3495908,-73.6955324,UN1719,"Caustic alkali liquids, n.o.s.",,
,,,,,,,,E42A6801,NEWALTA INDUSTRIAL SERVICES INC.,1731 PETTIT ROAD,FORT ERIE,ONTARIO,42.92318,-78.96801,UN1869,"Magnesium or Magnesium alloys with more than 50 percent magnesium in pellets, turnings or ribbons",,
,,,,,,,,E50A9917,NEWGRADE ENERGY INC. C/O CONSUMERS COOPERATIVE,REFINERIES LIMITED 500 EAST 9TH AVE NORTH,,SASKATCHEWAN,50.4821234,-104.5749917,UN1791,Hypochlorite solutions,,
,,,,,,,,E32A0497,"NORDWEST INTERNACIONAL, S.A. DE C.V.",CORREGIDORA NO 1901 B COL ALDRETE,TECATE,BAJA CALIFORNIA,32.57437,-116.60497,UN1790,"Hydrofluoric acid, with more than 60 percent strength",,
,,,,,,,,E47A1554,NORTH ATLANTIC REFINING LTD.,P.O. BOX 40,COME BY CHANCE,NEW FOUNDLAND,47.798346,-53.991554,UN3180,"Flammable solid, corrosive, inorganic, n.o.s.",,
,,,,,,,,E43A2223,ONTARIO INC O/A RPR ENVIRONMENTAL SERVICES,164-174 SOUTH SERVICE RD,STONEY CREEK,ONTARIO,43.2403839,-79.7352223,UN3130,"Water-reactive liquid, toxic, n.o.s.",,
,,,,,,,,E43A9142,ONTARIO POWER GENERATOR PICKERING NUCLEAR,1675 MONTGOMERY PARK,PICKERING,ONTARIO,43.8151782,-79.0609142,UN3200,"Pyrophoric solid, inorganic, n.o.s.",,
,,,,,,,,E25A3399,PEBAC SA DE CV,PONIENTE 4 V NORTE 1,MATAMOROS,TAMAULIPAS,25.84472,-97.53399,UN2903,"Pesticides, liquid, toxic, flammable, n.o.s. flash point not less than 23 degrees C",,
,,,,,,,,E32A1267,PEC DE MEXICO SA DE C.V.,AGUILA AZTECA 6011 BAJA MAQ EL AGUILA,TIJUANA,BAJA CALIFORNIA,32.4932013,-116.9111267,UN2926,"Flammable solids, toxic, organic, n.o.s.",,
,,,,,,,,E25A1762,"PEMEX REFINACION, REFINERIA ""ING. HECTOR LARA SOSA""",CARRETERA MONTERREY-REYNOSA KM 36.5 CADEREYTA,JIMENEZ,NUEVO LEON,25.6034536,-99.9831762,UN1824,Sodium hydroxide solution,,
,,,,,,,,E25A5943,PERLOS DE MEXICO,AVE. DEL PARQUE SIN LOTE 1,REYNOSA,TAMAULIPAS,25.9678,-98.25943,UN3170,Aluminum smelting by-products  or   Aluminum remelting by-products,,
,,,,,,,,E43A1718,PETRO-CANADA LUBRICANTS INC,385 SOUTHDOWN RD,MISSISSAUGA,ONTARIO,43.50208,-79.61718,NN112-97091,Unknown,,
,,,,,,,,E31A1092,PHILIPS LIGHTING ELECTROMAGNETICS S.A. DE. C.V.,"CALLE EL CIO #7830, PARQUE INDISTRIAL FERNANDEZ",CD. JUAREZ,CHIHUAHUA,31.688771,-106.461092,RN112-97091,Unknown,,
,,,,,,,,E43A0314,PHOTECH ENVIRONMENTAL SOLUTIONS INC.,600 READ ROAD,ST. CATHARINES,ONTARIO,43.22167,-79.20314,UN3135,"Water-reactive solid, self-heating, n.o.s.",,
,,,,,,,,E32A5265,PLATINADORA BAJA SA DE CV,BLVD INSURGENTES #19814 COL. BAJA MAQ ,TIJUANA,BAJA CALIFORNIA,32.4622373,-116.9095265,UN2809,Mercury,,
,,,,,,,,E32A7156,"POWER SONIC, S.A. DE C.V.","BLVD PACIFICO 14553, PQUE. IND. PACIFICO",TIJUANA,BAJA CALIFORNIA,32.455916,-116.977156,ON2711,Unknown,,
,,,,,,,,E31A0895,POWER SYSTEMS INC.,CARRETERA INT'L KM 5.5,NOGALES,SONORA,31.332773,-110.940895,,Not provided,,
,,,,,,,,E25A9167,PRECISIONES KEARFOTT,PARQUE IND. CIMA H,MATAMOROS,TAMAULIPAS,25.843721,-97.439167,NA1993,"Combustible liquid, n.o.s.",,
,,,,,,,,E31A8463,PRODUCTOS MARINE DE MEXICO,"CALLE OHM 8451, PARQUE INDUSTRIAL BERMUDEZ",CD. JUAREZ,CHIHUAHUA,31.712952,-106.398463,UN3083,Perchloryl fluoride,,
,,,,,,,,E32A4098,"PTES, SA DE CV",SERV C 9 SUR #113 CD IND,TIJUANA,BAJA CALIFORNIA,32.536638,-116.9214098,UN3095,"Corrosive solids, self-heating, n.o.s.",,
,,,,,,,,E32A5988,"PULIDOS INDUSTRIALES, SA DE CV (PLANTA II)","BLVD ALIVIO NTE 2DO, TIUJANA",TIJUANA,BAJA CALIFORNIA,32.52321,-116.85988,MN4177,Unknown,,
,,,,,,,,E43A6331,PURE METAL GALVANIZING,7470 BREN RD.,MISSISSAUGA,ONTARIO,43.70525,-79.66331,UN3028,"Batteries, dry, containing potassium hydroxide solid, electric, storage",,
,,,,,,,,E43A3353,PURE METAL GALVANIZING,32 BODINE DR,BRANTFORD,ONTARIO,43.16893,-80.23353,UN1892,Ethyldichloroarsine,,
,,,,,,,,E43A0112,PURE METAL GALVANIZING,369 ATTWELL DRIVE,REXDALE,ONTARIO,43.70437,-79.60112,EC0599,Unknown,,
,,,,,,,,E43A6731,QUANTEX TECHNOLOGIES,260 SHOEMAKER STREET,KITCHENER,ONTARIO,43.40443,-80.46731,EC0699,Unknown,,
,,,,,,,,E44A8534,REFRIGERANT SERVICES INC,15 WILLIAMS AVE,DARTMOUTH,NOVA SCOTIA,44.71456,-63.58534,EN4207,Unknown,,
,,,,,,,,E45A6992,ROYAL CANADIAN MINT,320 SUSSEX DRIVE,OTTAWA,ONTARIO,45.43152,-75.6992,EN4208,Unknown,,
,,,,,,,,E43A7347,RPR ENVIRONMENTAL,164-174 SOUTH SERVICE RD,STONEY CREEK,ONTARIO,43.24,-79.7347,UN1061,"Methylamine, anhydrous",,
,,,,,,,,E32A6179,"SAFARILAND INTERNACIONAL, S.A. DE C.V.","CAMINO VECINAL 20862, MURUA ORIENTE",TIJUANA,BAJA CALIFORNIA,32.42407,-116.96179,UN1072,"Oxygen, compressed",,
,,,,,,,,E43A3779,SAFETY-KLEEN,1574 HWY #2,ANCASTER,ONTARIO,43.19158,-80.03779,UN1052,"Hydrogen fluoride, anhydrous",,
,,,,,,,,E45A3326,SAFETY-KLEEN,"1455, RUE DE COULOMB",BOUCHERVILLE,QUEBEC,45.56021,-73.43326,UN1067,Dinitrogen tetroxide,,
,,,,,,,,E43A0206,SAFETY-KLEEN,25 REGAN ROAD,BRAMPTON,ONTARIO,43.70348,-79.80206,UN1008,Boron trifluoride,,
,,,,,,,,E45A7923,SAFETY-KLEEN,2730 BOUL. INDUSTRIEL,CHAMBLY,QUEBEC,45.42176,-73.27923,UN1048,"Hydrogen bromide, anhydrous",,
,,,,,,,,E46A4831,SAFETY-KLEEN,"4633 REGIONAL RD, SUITE 15",CHELMSFORD,ONTARIO,46.565196,-81.14831,UN2188,Arsine,,
,,,,,,,,E42A2153,SAFETY-KLEEN,1040 HARGRIEVE ROAD,LONDON,ONTARIO,42.9311,-81.2153,UN1956,"Compressed gas, n.o.s.",,
,,,,,,,,E45A2047,SAFETY-KLEEN,89 BENTLEY AVENUE,NEPEAN,ONTARIO,45.33237,-75.72047,UN1064,Methyl mercaptan,,
,,,,,,,,E43A7397,SAFETY-KLEEN,1220 SKAE DRIVE,OSHAWA,ONTARIO,43.85833,-78.87397,UN1081,"Tetrafluoroethylene, stabilized",,
,,,,,,,,E46A4554,SAFETY-KLEEN,85 DE HAMBOURG,ST AUGUSTIN,QUEBEC,46.75273,-71.44554,UN1988,"Aldehydes, flammable, toxic, n.o.s.",,
,,,,,,,,E45A1665,SAFETY-KLEEN,3 LAFARGE ROAD,ST. CONSTANT,QUEBEC,45.336361,-73.521665,UN2199,Phosphine,,
,,,,,,,,E32A6563,SCHLAGE DE MEXICO,BLVD. LA ENCANTADA NO 24050,TIJUANA,BAJA CALIFORNIA,32.41825,-116.96563,UN2295,Methyl chloroacetate,,
,,,,,,,,E32A3086,"SCHLAGE DE MEXICO, SA DE CV",LOS OLIVOS #698 COL CHAVEZ,TIJUANA,BAJA CALIFORNIA,32.526,-116.83086,UN1810,Phosphorus oxychloride,,
,,,,,,,,E32A4193,"SERVICIOS AMBIENTALES MEXICANOS, S.A. DE C.V.",CALLE SEBASTIAN VIZCAINO # 422 FRACC. GARITA DE OTAY,TIJUANA,BAJA CALIFORNIA,32.5410144,-116.9404193,UN2015,"Hydrogen peroxide, stabilized  or   Hydrogen peroxide aqueous solutions, stabilized with more than 60 percent hydrogen peroxide",,
,,,,,,,,E51A7093,SHELL CANADA LIMITED,SCOTFORD UPGRADER,FT SASKATCHEWAN,ALBERTA,53.796259,-113.091816,UN3084,"Corrosive solids, oxidizing, n.o.s.",,
,,,,,,,,E43A9182,SIVACO ONTARIO LIMITED,330 THOMAS ST. INGERSOL,,ONTARIO,43.02883,-80.89182,UN1505,Sodium persulfate,,
,,,,,,,,E32A2754,SKYWORKS SOLUTIONS DE MEXICO SA DE CV,CALZADA GOMEZ MORIN #1690 COL RIVERA,MEXICALI,BAJA CALIFORNIA,32.6084851,-115.4482754,UN3099,"Oxidizing liquid, toxic, n.o.s.",,
,,,,,,,,E32A1495,SMK ELECTRONICA SA DE C.V. ,"CALLE TERCERA NO 800 FACC. LA CIENEGA, LA MESA",TIJUANA,BAJA CALIFORNIA,32.5485947,-116.9191495,UN1385,"Sodium sulfide, anhydrous  or  Sodium sulfide with less than 30 percent water of crystallization",,
,,,,,,,,E18A8599,"SMK ELECTRONICA, S.A. DE C.V. (PLANT 2)","AVE FERROCARRIL 14.5 KM CENTRO INDUSTRIAL LOS PINOS NAVE 3, 4, 33, 3",TIJUANA,BAJA CALIFORNIA,18.3712899,-95.7458599,UN1748,"Calcium hypochlorite, dry  or  Calcium hypochlorite mixtures dry with more than 39 percent available chlorine (8.8 percent available oxygen)",,
,,,,,,,,E27A0709,SONY NUEVO LAREDO SA DE CV,BLVD LUIS DONALD COLOSIO KM 0.2 SUR MODULO INDUSTRAL AMERICA,NUEVO LAREDO,TAMAULIPAS,27.49886,-99.50709,UN3087,"Oxidizing solid, toxic, n.o.s.",,
,,,,,,,,E43A2661,STERICYCLE INC,170 BOVAIRD DRIVE,BRAMPTON,ONTARIO,43.7104581,-79.7822661,UN1344,"Trinitrophenol, wetted or Picric acid, wetted with not less than 30 percent water, by mass",,
,,,,,,,,E43A7246,STERICYCLE/PMC INC,19 ARMTHORPE RD,BRAMPTON,ONTARIO,43.74515,-79.67246,UN2030,"Hydrazine, aqueous solutions, with more than 37% hydrazine, by mass",,
,,,,,,,,E56A2957,SUNCOR ENERGY INC.,HWY 63 NORTH,FORT MCMURRAY,ALBERTA,56.60165,-111.32957,UN1131,Carbon disulfide,,
,,,,,,,,E56A2533,SYNCRUDE CANADA LTD,MILDRED LAKE SITE,FT MCMURRAY,ALBERTA,56.669239,-111.252533,UN2318,"Sodium hydrosulfide, with less than 25 percent water of crystallization",,
,,,,,,,,E49A.359,SYSTECH ENVIRONMENTAL CORP/MILLER ENVIRONMENTAL,P.O. BOX 279 ,ST. JEAN BAPTISTE,MANITOBA,49.232743,-97.359,UN3085,"Oxidizing solid, corrosive, n.o.s.",,
,,,,,,,,E49A7009,SYSTECH ENVIRONMENTAL/NEWALTA,305 RAILWAY AVE. E BOX #1040,RAYMOND,ALBERTA,49.5683,-114.07009,UN3261,"Corrosive solid, acidic, organic, n.o.s.",,
,,,,,,,,E32A1897,"THERMOMETRICS MEXICO, S.A. DE C.V.",CALLE 7 NORTE NO 110,TIJUANA,BAJA CALIFORNIA,32.53879,-116.91897,UN1050,"Hydrogen chloride, anhydrous",,
,,,,,,,,E43A8073,TONOLLI CANADA,1333 TONOLLI RD,MISSISSAUGA,ONTARIO,43.60415,-79.58073,UN2878,Titanium sponge granules or Titanium sponge powders,,
,,,,,,,,E49A6058,TOXCO WASTE MANAGEMENT,9384 HWY 22A,TRAIL,BRITISH COLUMBIA,49.044853,-117.6058,UN1493,Silver nitrate,,
,,,,,,,,E28A5419,"TRANSFORMADORES DE PIEDRAS NEGRAS, S.A. DE C.V.",AVE. INDUSTRIAL #3 PARQUE IND. AMISTAD,PIEDRAS NEGRAS,COAHUILA,28.68385,-100.55419,UN1873,"Perchloric acid with more than 50 percent but not more than 72 percent acid, by mass",,
,,,,,,,,E49A4568,TRI-ARROW INDUSTRIAL RECOVERY,13364 COMBER WAY,SURREY,BRITISH COLUMBIA,49.1354333,-122.8524568,UN3399,"Organometallic substance, liquid, water-reactive, flammable",,
,,,,,,,,E25A9917,TYCO ELECTRONICS POWER SYSTEMS DE MEXICO,NORTE 7 Y LAURO VILLAR #4,MATAMOROS,TAMAULIPAS,25.87716,-97.49917,UN1689,"Sodium cyanide, solid",,
,,,,,,,,E25A2408,TYCO INTERNATIONAL DE MEXICO S DE R L DE CV,ANTONIO MEUCCI #500 ESQ. GUILLERMO GLZ MACAREN,MATAMOROS TMAULIPAS,MEXICO,25.856446,-97.462408,UN2556,"Nitrocellulose with alcohol with not less than 25 percent alcohol by mass, and with not more than 12.6 percent nitrogen, by dry mass",,
,,,,,,,,E46A2659,ULTRAMAR LTD - JEAN GAULIN REGINERY,165 CHEMIN DE ILES,LEVIS,QUEBEC,46.760208,-71.1882659,UN1426,Sodium borohydride,,
,,,,,,,,E25A9966,VALEO SISTEMAS ELECTRONICOS,CARR. A MATAMOROS KM 99 BRECHA 115 COL. CELANESE ,RIO BRAVO,TAMAULIPAS,25.9899287,-98.0659966,UN3206,"Alkali metal alcoholates, self-heating, corrosive, n.o.s.",,
,,,,,,,,E45A0965,VEOLIA ES CANADA SERVICES INDUSTRIAL INC,11455 ONTARIO EST,MONTREAL EST,QUEBEC,45.637035,-73.510965,UN3094,"Corrosive liquids, water-reactive, n.o.s.",,
,,,,,,,,E25A7515,VTI TECHNOLOGIES SA DE CV,"CALLE PONIENTE 4#1 ESQU NORTER 7, CD INDUSTRIAL",MATAMOROS,MEXICO,25.83719,-97.437515,UN1396,"Aluminum powder, uncoated",,
,,,,,,,,E43A6011,WHIRLPOOL BRIDGE,BRIDGE & RIVER RD,NIAGARA FALLS,ONTARIO,43.1088,-79.06011,UN2672,"Ammonia solutions, relative density between 0.880 and 0.957 at 15 degrees C in water, with more than 10 percent but not more than 35 percent ammonia",,
,,,,,,,,E47A0789,XSTRATA CANADA CORP - BRUNSWICK SMELTER,692 MAIN STREET,BELLEDUNE,NEW BRUNSWICK,47.8965538,-65.830789,UN1336,"Nitroguanidine, wetted or Picrite, wetted with not less than 20 percent water, by mass",,
,,,,,,,,,,,,,,,UN3394,"Organometallic substance, liquid, pyrophoric, water-reactive",,
,,,,,,,,,,,,,,,UN1079,Sulfur dioxide,,
,,,,,,,,,,,,,,,UN3076,Unknown,,
,,,,,,,,,,,,,,,UN1085,"Vinyl bromide, stabilized",,
,,,,,,,,,,,,,,,UN1053,Hydrogen sulfide,,
,,,,,,,,,,,,,,,UN1040,Ethylene oxide or Ethylene oxide with nitrogen up to a total pressure of 1MPa (10 bar) at 50 degrees C,,
,,,,,,,,,,,,,,,UN1016,"Carbon monoxide, compressed",,
,,,,,,,,,,,,,,,UN1017,Chlorine,,
,,,,,,,,,,,,,,,UN1035,Ethane,,
,,,,,,,,,,,,,,,UN1070,Nitrous oxide,,
,,,,,,,,,,,,,,,UN3161,"Liquefied gas, flammable, n.o.s.",,
,,,,,,,,,,,,,,,UN1971,"Methane, compressed or Natural gas, compressed (with high methane content)",,
,,,,,,,,,,,,,,,UN1962,Ethylene,,
,,,,,,,,,,,,,,,UN1077,"Propylene see also Petroleum gases, liquefied",,
,,,,,,,,,,,,,,,UN1075,"Petroleum gases, liquefied or Liquefied petroleum gas",,
,,,,,,,,,,,,,,,UN1063,"Methyl chloride, or Refrigerant gas R 40",,
,,,,,,,,,,,,,,,UN1049,"Hydrogen, compressed",,
,,,,,,,,,,,,,,,UN1080,Sulfur hexafluoride,,
,,,,,,,,,,,,,,,UN1155,Diethyl ether or Ethyl ether,,
,,,,,,,,,,,,,,,UN1010,"Butadienes, stabilized or Butadienes and Hydrocarbon mixture, stabilized, containing more than 40% butadienes",,
,,,,,,,,,,,,,,,UN1012,"Butylene see also Petroleum gases, liquefied",,
,,,,,,,,,,,,,,,UN1032,"Dimethylamine, anhydrous",,
,,,,,,,,,,,,,,,UN2927,"Toxic liquids, corrosive, organic, n.o.s.",,
,,,,,,,,,,,,,,,UN2604,Boron trifluoride diethyl etherate,,
,,,,,,,,,,,,,,,UN1680,"Potassium cyanide, solid",,
,,,,,,,,,,,,,,,UN2334,Allylamine,,
,,,,,,,,,,,,,,,UN1498,Sodium nitrate,,
,,,,,,,,,,,,,,,UN1055,"Isobutylene see also Petroleum gases, liquefied",,
,,,,,,,,,,,,,,,UN1957,"Deuterium, compressed",,
,,,,,,,,,,,,,,,UN1087,"Vinyl methyl ether, stabilized",,
,,,,,,,,,,,,,,,UN1969,"Isobutane see also Petroleum gases, liquefied",,
,,,,,,,,,,,,,,,UN3057,Trifluoroacetyl chloride,,
,,,,,,,,,,,,,,,UN3051,Unknown,,
,,,,,,,,,,,,,,,UN2196,Tungsten hexafluoride,,
,,,,,,,,,,,,,,,UN1697,"Chloroacetophenone, solid, (CN)",,
,,,,,,,,,,,,,,,UN2012,Potassium phosphide,,
,,,,,,,,,,,,,,,UN1834,Sulfuryl chloride,,
,,,,,,,,,,,,,,,UN1092,"Acrolein, stabilized",,
,,,,,,,,,,,,,,,UN3089,"Metal powders, flammable, n.o.s.",,
,,,,,,,,,,,,,,,UN1428,Sodium,,
,,,,,,,,,,,,,,,UN3014,"Substituted nitrophenol pesticides, liquid, toxic",,
,,,,,,,,,,,,,,,UN3086,"Toxic solids, oxidizing, n.o.s.",,
,,,,,,,,,,,,,,,UN1500,Sodium nitrite,,
,,,,,,,,,,,,,,,UN3055,2-(2-Aminoethoxy) ethanol,,
,,,,,,,,,,,,,,,UN3255,tert-Butyl hypochlorite,,
,,,,,,,,,,,,,,,UN2067,Ammonium nitrate based fertilizer,,
,,,,,,,,,,,,,,,UN1490,Potassium permanganate,,
,,,,,,,,,,,,,,,UN1779,Formic acid with more than 85% acid by mass,,
,,,,,,,,,,,,,,,UN2688,1-Bromo-3-chloropropane,,
,,,,,,,,,,,,,,,UN2928,"Toxic solids, corrosive, organic, n.o.s.",,
,,,,,,,,,,,,,,,UN2689,Glycerol alpha-monochlorohydrin,,
,,,,,,,,,,,,,,,UN1807,Phosphorus pentoxide,,
,,,,,,,,,,,,,,,UN3179,"Flammable solid, toxic, inorganic, n.o.s.",,
,,,,,,,,,,,,,,,UN3132,"Water-reactive solid, flammable, n.o.s.",,
,,,,,,,,,,,,,,,UN2468,"Trichloroisocyanuric acid, dry",,
,,,,,,,,,,,,,,,UN2381,Dimethyl disulfide,,
,,,,,,,,,,,,,,,UN2059,"Nitrocellulose, solution, flammable with not more than 12.6 percent nitrogen, by mass, and not more than 55 percent nitrocellulose",,
,,,,,,,,,,,,,,,UN1836,Thionyl chloride,,
,,,,,,,,,,,,,,,UN1244,Methylhydrazine,,
,,,,,,,,,,,,,,,UN3134,"Water-reactive solid, toxic, n.o.s.",,
,,,,,,,,,,,,,,,UN1239,Methyl chloromethyl ether,,
,,,,,,,,,,,,,,,UN3108,"Organic peroxide type E, solid",,
,,,,,,,,,,,,,,,UN1001,"Acetylene, dissolved",,
,,,,,,,,,,,,,,,UN1741,Boron trichloride,,
,,,,,,,,,,,,,,,UN2930,"Toxic solids, flammable, organic, n.o.s.",,
,,,,,,,,,,,,,,,UN1470,"Lead perchlorate, solid",,
,,,,,,,,,,,,,,,UN1078,"Refrigerant gases, n.o.s.",,
,,,,,,,,,,,,,,,UN1028,Dichlorodifluoromethane or  Refrigerant gas R 12,,
,,,,,,,,,,,,,,,UN2363,Ethyl mercaptan,,
,,,,,,,,,,,,,,,UN1060,"Methyl acetylene and propadiene mixtures, stabilized",,
,,,,,,,,,,,,,,,UN2907,"Isosorbide dinitrate mixture with not less than 60 percent lactose, mannose, starch or calcium hydrogen phosphate",,
,,,,,,,,,,,,,,,UN3129,"Water-reactive liquid, corrosive, n.o.s.",,
,,,,,,,,,,,,,,,UN1726,"Aluminum chloride, anhydrous",,
,,,,,,,,,,,,,,,UN1942,"Ammonium nitrate, with not more than 0.2% total combustible material, including any organic substance, calculated as carbon to the exclusion of any other added substance",,
,,,,,,,,,,,,,,,UN1849,"Sodium sulfide, hydrated with not less than 30 percent water",,
,,,,,,,,,,,,,,,UN3242,Azodicarbonamide,,
,,,,,,,,,,,,,,,UN1120,Butanols,,
,,,,,,,,,,,,,,,UN3226,Self-reactive solid type D,,
,,,,,,,,,,,,,,,UN1011,"Butane see also Petroleum gases, liquefied",,
,,,,,,,,,,,,,,,UN1224,"Ketones, liquid, n.o.s.",,
,,,,,,,,,,,,,,,UN1418,"Magnesium, powder or Magnesium alloys, powder",,
,,,,,,,,,,,,,,,UN3288,"Toxic solid, inorganic, n.o.s.",,
,,,,,,,,,,,,,,,UN3344,"Pentaerythrite tetranitrate mixture, desensitized, solid, n.o.s. or Pentaerythritol tetranitrate mixture, desensitized, solid, n.o.s. or PETN mixture, desensitized, solid, n.o.s. with more than 10 percent but not more than 20 percent PETN, by mass",,
,,,,,,,,,,,,,,,UN1391,"Alkali metal dispersions,  or   Alkaline earth metal dispersions",,
,,,,,,,,,,,,,,,UN1083,"Trimethylamine, anhydrous",,
,,,,,,,,,,,,,,,IN2 3B07,Unknown,,
,,,,,,,,,,,,,,,UN2203,Silane,,
,,,,,,,,,,,,,,,UN1754,Chlorosulfonic acid (with or without sulfur trioxide),,
,,,,,,,,,,,,,,,UN2923,"Corrosive solids, toxic, n.o.s.",,
,,,,,,,,,,,,,,,UN1660,"Nitric oxide, compressed",,
,,,,,,,,,,,,,,,UN2190,"Oxygen difluoride, compressed",,
,,,,,,,,,,,,,,,BO6499,Unknown,,
,,,,,,,,,,,,,,,UN1228,"Mercaptans, liquid, flammable, toxic, n.o.s. or  Mercaptan mixtures, liquid, flammable, toxic, n.o.s.",,
,,,,,,,,,,,,,,,UN1504,Sodium peroxide,,
,,,,,,,,,,,,,,,BO6699,Unknown,,
,,,,,,,,,,,,,,, N2 3B07,Unknown,,
,,,,,,,,,,,,,,,UN3243,"Solids containing toxic liquid, n.o.s.",,
,,,,,,,,,,,,,,,UN1673,"Phenylenediamines (o-, m-, p-)",,
,,,,,,,,,,,,,,,UN1084,Unknown,,
,,,,,,,,,,,,,,,UN1027,Cyclopropane,,
,,,,,,,,,,,,,,,UN1013,Carbon dioxide,,
,,,,,,,,,,,,,,,UN3125,"Toxic solids, water-reactive, n.o.s.",,
,,,,,,,,,,,,,,,UN2913,"Radioactive material, surface contaminated objects (SCO-I or SCO-II) non fissile or fissile-excepted",,
,,,,,,,,,,,,,,,UN2760,"Arsenical pesticides, liquid, flammable, toxic, flash point less than 23 degrees C",,
,,,,,,,,,,,,,,,UN1907,Soda lime with more than 4 percent sodium hydroxide,,
,,,,,,,,,,,,,,,UN2663,Unknown,,
,,,,,,,,,,,,,,,UN3058,Unknown,,
,,,,,,,,,,,,,,,UN1162,Dimethyldichlorosilane,,
,,,,,,,,,,,,,,,UN1242,Methyldichlorosilane,,
,,,,,,,,,,,,,,,UN3207,Unknown,,
,,,,,,,,,,,,,,,UN13436,Unknown,,
,,,,,,,,,,,,,,,UN1398,"Aluminum silicon powder, uncoated",,
,,,,,,,,,,,,,,,UN1736,Benzoyl chloride,,
,,,,,,,,,,,,,,,UN1431,Sodium methylate,,
,,,,,,,,,,,,,,,UN1284,Unknown,,
,,,,,,,,,,,,,,,AY2307,Unknown,,
,,,,,,,,,,,,,,,UY2307,Unknown,,
,,,,,,,,,,,,,,,UN2988,"Chlorosilanes, water-reactive, flammable, corrosive, n.o.s.",,
,,,,,,,,,,,,,,,UN1296,Triethylamine,,
,,,,,,,,,,,,,,,UN2880,"Calcium hypochlorite, hydrated  or   Calcium hypochlorite, hydrated mixtures, with not less than 5.5 percent but not more than 16 percent water",,
,,,,,,,,,,,,,,,UN2411,Butyronitrile,,
,,,,,,,,,,,,,,,UN3272,"Esters, n.o.s.",,
,,,,,,,,,,,,,,,UN2366,Diethyl carbonate,,
,,,,,,,,,,,,,,,UN2644,Methyl iodide,,
,,,,,,,,,,,,,,,UN118,Unknown,,
,,,,,,,,,,,,,,,UN2587,Benzoquinone,,
,,,,,,,,,,,,,,,UN1717,Acetyl chloride,,
,,,,,,,,,,,,,,,UN1404,Calcium hydride,,
,,,,,,,,,,,,,,,UN2984,"Hydrogen peroxide, aqueous solutions with not less than 8 percent but less than 20 percent hydrogen peroxide (stabilized as necessary)",,
,,,,,,,,,,,,,,,UN3278,"Organophosphorus compound, liquid, toxic, n.o.s.",,
,,,,,,,,,,,,,,,UN3079,"Methacrylonitrile, stabilized",,
,,,,,,,,,,,,,,,NA5000,Unknown,,
,,,,,,,,,,,,,,,MY6177,Unknown,,
,,,,,,,,,,,,,,,UN2795,"Batteries, wet, filled with alkali, electric storage",,
,,,,,,,,,,,,,,,LY6177,Unknown,,
,,,,,,,,,,,,,,,UN3091,Lithium batteries packed with equipment,,
,,,,,,,,,,,,,,,UN1054,Unknown,,
,,,,,,,,,,,,,,,UN2445,Unknown,,
,,,,,,,,,,,,,,,UN1980,Unknown,,
,,,,,,,,,,,,,,,UN1046,"Helium, compressed",,
,,,,,,,,,,,,,,,UN1978,"Propane see also Petroleum gases, liquefied",,
,,,,,,,,,,,,,,,UN1086,"Vinyl chloride, stabilized  ",,
,,,,,,,,,,,,,,,UN1859,Silicon tetrafluoride,,
,,,,,,,,,,,,,,,UN1589,"Cyanogen chloride, stabilized",,
,,,,,,,,,,,,,,,UN1026,Cyanogen,,
,,,,,,,,,,,,,,,UN1746,Bromine trifluoride,,
,,,,,,,,,,,,,,,UN2495,Iodine pentafluoride,,
,,,,,,,,,,,,,,,UN1259,"Nickel carbonyl",,
,,,,,,,,,,,,,,,UY2717,Unknown,,
,,,,,,,,,,,,,,,UN8098,Unknown,,
,,,,,,,,,,,,,,,UN3588,Unknown,,
,,,,,,,,,,,,,,,UN3286,"Flammable liquid, toxic, corrosive, n.o.s.",,
,,,,,,,,,,,,,,,UN2213,Paraformaldehyde,,
,,,,,,,,,,,,,,,UN1415,Lithium,,
,,,,,,,,,,,,,,,UN3269,Polyester resin kit,,
,,,,,,,,,,,,,,,UN2789,"Acetic acid, glacial  or  Acetic acid solution, with more than 80 percent acid, by mass",,
,,,,,,,,,,,,,,,UN2471,Osmium tetroxide,,
,,,,,,,,,,,,,,,RY2307,Unknown,,
,,,,,,,,,,,,,,, Y2307,Unknown,,
,,,,,,,,,,,,,,,UN1383,"Pyrophoric metals, n.o.s., or Pyrophoric alloys, n.o.s.",,
,,,,,,,,,,,,,,,UN1744,Bromine,,
,,,,,,,,,,,,,,,UN2219,Allyl glycidyl ether,,
,,,,,,,,,,,,,,,UN3088,"Self-heating solid, organic, n.o.s.",,
,,,,,,,,,,,,,,,UN3297,Ethylene oxide and chlorotetrafluoroethane mixture with not more than 8.8 percent ethylene oxide,,
,,,,,,,,,,,,,,,UN3203,Unknown,,
,,,,,,,,,,,,,,,UN3064,"Nitroglycerin, solution in alcohol, with more than 1 percent but not more than 5 percent nitroglycerin",,
,,,,,,,,,,,,,,,UN18588,Unknown,,
,,,,,,,,,,,,,,,UN1690,"Sodium fluoride, solid",,
,,,,,,,,,,,,,,,UN1845,"Carbon dioxide, solid or Dry ice",,
,,,,,,,,,,,,,,,SY2307,Unknown,,
,,,,,,,,,,,,,,,MY2307,Unknown,,
,,,,,,,,,,,,,,,UN1989,"Aldehydes, n.o.s.",,
,,,,,,,,,,,,,,,UN1561,Arsenic trioxide,,
,,,,,,,,,,,,,,,UN1484,Potassium bromate,,
,,,,,,,,,,,,,,,UN1262,Octanes,,
,,,,,,,,,,,,,,,UN2478,"Isocyanates, flammable, toxic, n.o.s. or Isocyanate solutions, flammable, toxic, n.o.s. flash point less than 23 degrees C",,
,,,,,,,,,,,,,,,UN1425,Unknown,,
,,,,,,,,,,,,,,,UN14??,"Alkali metal alloys, liquid, n.o.s.",,
,,,,,,,,,,,,,,,UN1788,"Hydrobromic acid, with more than 49 percent hydrobromic acid",,
,,,,,,,,,,,,,,,UN1930,Unknown,,
,,,,,,,,,,,,,,,UN1226,Unknown,,
,,,,,,,,,,,,,,,UN1395,Aluminum ferrosilicon powder,,
,,,,,,,,,,,,,,,UN1379,"Paper, unsaturated oil treated incompletely dried (including carbon paper)",,
,,,,,,,,,,,,,,,UN3298,Ethylene oxide and pentafluoroethane mixture with not more than 7.9 percent ethylene oxide,,
,,,,,,,,,,,,,,,UN1936,Unknown,,
,,,,,,,,,,,,,,,UN1758,Chromium oxychloride,,
,,,,,,,,,,,,,,,UN2029,"Hydrazine, anhydrous",,
,,,,,,,,,,,,,,,UN2692,Boron tribromide,,
,,,,,,,,,,,,,,,UN1934,Unknown,,
,,,,,,,,,,,,,,,UN2693,"Bisulfites, aqueous solutions, n.o.s.",,
,,,,,,,,,,,,,,, Y1121,Unknown,,
,,,,,,,,,,,,,,,IY7117,Unknown,,
,,,,,,,,,,,,,,,TY4077,Unknown,,
,,,,,,,,,,,,,,, Y4077,Unknown,,
,,,,,,,,,,,,,,, O4611,Unknown,,
,,,,,,,,,,,,,,,RY4077,Unknown,,
,,,,,,,,,,,,,,,VY0177,Unknown,,
,,,,,,,,,,,,,,,SY2178,Unknown,,
,,,,,,,,,,,,,,,KY6177,Unknown,,
,,,,,,,,,,,,,,,RY6177,Unknown,,
,,,,,,,,,,,,,,, Y7171,Unknown,,
,,,,,,,,,,,,,,,UN3249,"Medicine, solid, toxic, n.o.s.",,
,,,,,,,,,,,,,,,DY7447,Unknown,,
,,,,,,,,,,,,,,,EY7447,Unknown,,
,,,,,,,,,,,,,,,AY7447,Unknown,,
,,,,,,,,,,,,,,,AY8447,Unknown,,
,,,,,,,,,,,,,,,UN1983,"1-Chloro-2,2,2-trifluoroethane or  Refrigerant gas R 133a",,
,,,,,,,,,,,,,,,UN1979,Unknown,,
,,,,,,,,,,,,,,,UN1066,"Nitrogen, compressed",,
,,,,,,,,,,,,,,,UN1002,"Air, compressed",,
,,,,,,,,,,,,,,,UN1033,Dimethyl ether,,
,,,,,,,,,,,,,,,UN1965,"Hydrocarbon gas mixture, liquefied, n.o.s.",,
,,,,,,,,,,,,,,,AY2717,Unknown,,
,,,,,,,,,,,,,,,UN3159,"1,1,1,2-Tetrafluoroethane or  Refrigerant gas R 134a",,
,,,,,,,,,,,,,,,UN2191,Sulfuryl fluoride,,
,,,,,,,,,,,,,,,UN1967,"Insecticide gases, toxic, n.o.s.",,
,,,,,,,,,,,,,,,UN1076,Phosgene,,
,,,,,,,,,,,,,,,UN1745,Bromine pentafluoride,,
,,,,,,,,,,,,,,,UN3284,"Tellurium compound, n.o.s.",,
,,,,,,,,,,,,,,,UN1444,Ammonium persulfate,,
,,,,,,,,,,,,,,,LY2307,Unknown,,
,,,,,,,,,,,,,,,UN3080,"Isocyanates, toxic, flammable, n.o.s. or   Isocyanate solutions, toxic, flammable, n.o.s., flash point not less than 23 degrees C but not more than 61 degrees C and boiling point less than 300 degrees C",,
,,,,,,,,,,,,,,,UN2817,"Ammonium hydrogendifluoride, solution",,
,,,,,,,,,,,,,,,OY2307,Unknown,,
,,,,,,,,,,,,,,,UN1402,Calcium carbide,,
,,,,,,,,,,,,,,,UN1401,Calcium,,
,,,,,,,,,,,,,,,UN2966,Thioglycol,,
,,,,,,,,,,,,,,,UN3267,"Corrosive liquid, basic, organic, n.o.s.",,
,,,,,,,,,,,,,,,UN3262,"Corrosive solid, basic, inorganic, n.o.s.",,
,,,,,,,,,,,,,,,UN3336,"Mercaptans, liquid, flammable, n.o.s. or Mercaptan mixture, liquid, flammable, n.o.s.",,
,,,,,,,,,,,,,,,UN1289,Sodium methylate solutions in alcohol,,
,,,,,,,,,,,,,,,UN1328,Hexamethylenetetramine,,
,,,,,,,,,,,,,,,UN1463,"Chromium trioxide, anhydrous",,
,,,,,,,,,,,,,,,UN1889,Cyanogen bromide,,
,,,,,,,,,,,,,,,UN2487,Phenyl isocyanate,,
,,,,,,,,,,,,,,,UN3289,"Toxic liquid, corrosive, inorganic, n.o.s.",,
,,,,,,,,,,,,,,,UN1739,Benzyl chloroformate,,
,,,,,,,,,,,,,,,UN1828,Sulfur chlorides,,
,,,,,,,,,,,,,,,UN1829,"Sulfur trioxide, stabilized",,
,,,,,,,,,,,,,,,UN2899,Unknown,,
,,,,,,,,,,,,,,,UN3263,"Corrosive solid, basic, organic, n.o.s.",,
,,,,,,,,,,,,,,,UN2218,"Acrylic acid, stabilized",,
,,,,,,,,,,,,,,,UN2073,"Ammonia solution, relative density less than 0.880 at 15 degrees C in water, with more than 35 percent but not more than 50 percent ammonia",,
,,,,,,,,,,,,,,,UN3248,"Medicine, liquid, flammable, toxic, n.o.s.",,
,,,,,,,,,,,,,,,UN2921,"Corrosive solids, flammable, n.o.s.",,
,,,,,,,,,,,,,,,UN1133,"Adhesives, containing a flammable liquid",,
,,,,,,,,,,,,,,,UN1283,Unknown,,
,,,,,,,,,,,,,,,UN1309,"Aluminum powder, coated",,
,,,,,,,,,,,,,,,UN1492,Potassium persulfate,,
,,,,,,,,,,,,,,,UN3158,"Gas, refrigerated liquid, n.o.s. (cryogenic liquid)",,
,,,,,,,,,,,,,,,UN2208,"Calcium hypochlorite mixtures, dry, with more than 10 percent but not more than 39 percent available chlorine",,
,,,,,,,,,,,,,,,UN3233,"Self-reactive liquid type C, temperature controlled",,
,,,,,,,,,,,,,,,UN1769,Diphenyldichlorosilane,,
,,,,,,,,,,,,,,,UN1210,"Printing ink, flammable or Printing ink related material (including printing ink thinning or reducing compound), flammable",,
,,,,,,,,,,,,,,,DY2307,Unknown,,
,,,,,,,,,,,,,,,UN1298,Trimethylchlorosilane,,
,,,,,,,,,,,,,,,UN2862,"Vanadium pentoxide, non-fused form",,
,,,,,,,,,,,,,,,UN1827,"Stannic chloride, anhydrous",,
,,,,,,,,,,,,,,,UN1847,"Potassium sulfide, hydrated with not less than 30 percent water of crystallization",,
,,,,,,,,,,,,,,,UN1649,Motor fuel anti-knock mixtures,,
,,,,,,,,,,,,,,,UN2914,Unknown,,
,,,,,,,,,,,,,,,UN1587,Copper cyanide,,
,,,,,,,,,,,,,,,UN2912,"Radioactive material, low specific activity (LSA-I) non fissile or fissile-excepted",,
,,,,,,,,,,,,,,,UN1897,Tetrachloroethylene,,
,,,,,,,,,,,,,,,TY5637,Unknown,,
,,,,,,,,,,,,,,,OY9117,Unknown,,
,,,,,,,,,,,,,,,WY9117,Unknown,,
,,,,,,,,,,,,,,,LY2177,Unknown,,
,,,,,,,,,,,,,,,KY2177,Unknown,,
,,,,,,,,,,,,,,,AY9447,Unknown,,
,,,,,,,,,,,,,,,EY0447,Unknown,,
,,,,,,,,,,,,,,,UN1090,Acetone,,
,,,,,,,,,,,,,,,UY2327,Unknown,,
,,,,,,,,,,,,,,,AY2327,Unknown,,
,,,,,,,,,,,,,,,RY2327,Unknown,,
,,,,,,,,,,,,,,,AY2271,Unknown,,
,,,,,,,,,,,,,,,RY2271,Unknown,,
,,,,,,,,,,,,,,,LY2271,Unknown,,
,,,,,,,,,,,,,,,SY2271,Unknown,,
,,,,,,,,,,,,,,,IY2271,Unknown,,
,,,,,,,,,,,,,,,MY2271,Unknown,,
,,,,,,,,,,,,,,,MY6809,Unknown,,
,,,,,,,,,,,,,,,NY6809,Unknown,,
,,,,,,,,,,,,,,,RY6809,Unknown,,
,,,,,,,,,,,,,,,UN9149,Unknown,,
,,,,,,,,,,,,,,,UN2032,"Nitric acid, red fuming",,
,,,,,,,,,,,,,,,UN2485,n-Butyl isocyanate,,
,,,,,,,,,,,,,,,UN3208,"Metallic substance, water-reactive, n.o.s.",,
,,,,,,,,,,,,,,,UN1258,Unknown,,
,,,,,,,,,,,,,,,UN1883,Unknown,,
,,,,,,,,,,,,,,,UN3032,Unknown,,
,,,,,,,,,,,,,,,UN1851,"Medicine, liquid, toxic, n.o.s.",,
,,,,,,,,,,,,,,,UN1315,Unknown,,
,,,,,,,,,,,,,,,UN3280,"Organoarsenic compound, liquid, n.o.s.",,
,,,,,,,,,,,,,,,UN2610,Triallylamine,,
,,,,,,,,,,,,,,,UN2474,Thiophosgene,,
,,,,,,,,,,,,,,,UN1478,Unknown,,
,,,,,,,,,,,,,,,UN2072,Unknown,,
,,,,,,,,,,,,,,,UN1477,"Nitrates, inorganic, n.o.s.",,
,,,,,,,,,,,,,,,UN1940,Thioglycolic acid,,
,,,,,,,,,,,,,,,UN1778,Fluorosilicic acid,,
,,,,,,,,,,,,,,,UN1838,Titanium tetrachloride,,
,,,,,,,,,,,,,,,UN1182,Ethyl chloroformate,,
,,,,,,,,,,,,,,,UN1715,Acetic anhydride,,
,,,,,,,,,,,,,,,UN1568,Unknown,,
,,,,,,,,,,,,,,,UN1400,Barium,,
,,,,,,,,,,,,,,,UN1922,Pyrrolidine,,
,,,,,,,,,,,,,,,UN2028,"Bombs, smoke, non-explosive, with corrosive liquid, without initiating device",,
,,,,,,,,,,,,,,,UN2240,Chromosulfuric acid,,
,,,,,,,,,,,,,,,UN1958,"1,2-Dichloro-1,1,2,2- tetrafluoroethane or   Refrigerant gas R 114",,
,,,,,,,,,,,,,,,UN2460,2-Methyl-2-butene,,
,,,,,,,,,,,,,,,UN3018,"Organophosphorus pesticides, liquid, toxic",,
,,,,,,,,,,,,,,,UN1037,Ethyl chloride,,
,,,,,,,,,,,,,,,UN1860,"Vinyl fluoride, stabilized",,
,,,,,,,,,,,,,,,UN2454,"Methyl fluoride, or Refrigerant gas R 41",,
,,,,,,,,,,,,,,,UN1082,"Trifluorochloroethylene, stabilized",,
,,,,,,,,,,,,,,,UN2200,"Propadiene, stabilized",,
,,,,,,,,,,,,,,,UN1006,"Argon, compressed",,
,,,,,,,,,,,,,,,UN3290,"Toxic solid, corrosive, inorganic, n.o.s.",,
,,,,,,,,,,,,,,,UN2420,Hexafluoroacetone,,
,,,,,,,,,,,,,,,UN1069,Nitrosyl chloride,,
,,,,,,,,,,,,,,,UN2204,Carbonyl sulfide,,
,,,,,,,,,,,,,,,UN1366,Unknown,,
,,,,,,,,,,,,,,,UN2480,Methyl isocyanate,,
,,,,,,,,,,,,,,,UN3356,"Oxygen generator, chemical (including when contained in associated equipment, e.g., passenger service units (PSUs), portable breathing equipment (PBE), etc).",,
,,,,,,,,,,,,,,,UN1814,"Potassium hydroxide, solution",,
,,,,,,,,,,,,,,,UN2796,"Battery fluid, acid",,
,,,,,,,,,,,,,,,UN1530,Unknown,,
,,,,,,,,,,,,,,,UN1781,Hexadecyltrichlorosilane,,
,,,,,,,,,,,,,,,UN1671,"Phenol, solid",,
,,,,,,,,,,,,,,,UN2699,Trifluoroacetic acid,,
,,,,,,,,,,,,,,,UN1994,Iron pentacarbonyl,,
,,,,,,,,,,,,,,,UN3156,"Compressed gas, oxidizing, n.o.s.",,
,,,,,,,,,,,,,,,UN2078,Toluene diisocyanate,,
,,,,,,,,,,,,,,,UN2790,"Acetic acid solution, not less than 50 percent but not more than 80 percent acid, by mass",,
,,,,,,,,,,,,,,,UN1230,Methanol,,
,,,,,,,,,,,,,,,UN2783,"Organophosphorus pesticides, solid, toxic",,
,,,,,,,,,,,,,,,UN3071,"Mercaptans, liquid, toxic, flammable, n.o.s. or   Mercaptan mixtures, liquid, toxic, flammable, n.o.s., flash point not less than 23 degrees ",,
,,,,,,,,,,,,,,,UN1198,"Formaldehyde solutions, flammable",,
,,,,,,,,,,,,,,,UN1637,Mercury gluconate,,
,,,,,,,,,,,,,,,UN2546,"Titanium powder, dry",,
,,,,,,,,,,,,,,,UN2441,"Titanium trichloride, pyrophoric or Titanium trichloride mixtures, pyrophoric",,
,,,,,,,,,,,,,,,UN2818,"Ammonium polysulfide, solution",,
,,,,,,,,,,,,,,,UN1903,"Disinfectant, liquid, corrosive, n.o.s.",,
,,,,,,,,,,,,,,,UN1466,Ferric nitrate,,
,,,,,,,,,,,,,,,UN1350,Sulfur,,
,,,,,,,,,,,,,,,UN2822,2-Chloropyridine,,
,,,,,,,,,,,,,,,UN2513,Bromoacetyl bromide,,
,,,,,,,,,,,,,,,UN1595,Dimethyl sulfate,,
,,,,,,,,,,,,,,,UN1806,Phosphorus pentachloride,,
,,,,,,,,,,,,,,,UN2089,Unknown,,
,,,,,,,,,,,,,,,UN2056,Tetrahydrofuran,,
,,,,,,,,,,,,,,,UN3342,Xanthates,,
,,,,,,,,,,,,,,,UN1301,"Vinyl acetate, stabilized",,
,,,,,,,,,,,,,,,UN2821,Phenol solutions,,
,,,,,,,,,,,,,,,UN1835,Tetramethylammonium hydroxide solution,,
,,,,,,,,,,,,,,,UN1457,Calcium peroxide,,
,,,,,,,,,,,,,,,UN3295,"Hydrocarbons, liquid, n.o.s.",,
,,,,,,,,,,,,,,,UN1480,Unknown,,
,,,,,,,,,,,,,,,UN1438,Aluminum nitrate,,
,,,,,,,,,,,,,,,UN3195,Unknown,,
,,,,,,,,,,,,,,,UN3062,Unknown,,
,,,,,,,,,,,,,,,UN1920,Nonanes,,
,,,,,,,,,,,,,,,UN2082,Unknown,,
,,,,,,,,,,,,,,,UN3176,"Flammable solid, organic, molten, n.o.s.",,
,,,,,,,,,,,,,,,UN1170,Ethanol  or  Ethyl alcohol  or   Ethanol solutions  or  Ethyl alcohol solutions,,
,,,,,,,,,,,,,,,UN1307,Xylenes,,
,,,,,,,,,,,,,,,N/A,Unknown,,
,,,,,,,,,,,,,,,NA3082,"Hazardous waste, liquid, n.o.s.",,
,,,,,,,,,,,,,,,UN3163,"Liquefied gas, n.o.s.",,
,,,,,,,,,,,,,,,UN1193,Ethyl methyl ketone or  Methyl ethyl ketone,,
,,,,,,,,,,,,,,,UN1872,Lead dioxide,,
,,,,,,,,,,,,,,,UN1998,Unknown,,